#dP2022  7  5  0  0  0.00000000      96 __u+U ITR14 FIT  IAC
## 2217 172800.00000000   900.00000000 59765 0.0000000000000
+  127   C01C02C03C04C05C06C07C08C09C10C11C12C13C14C16C19C20
+        C21C22C23C24C25C26C27C28C29C30C32C33C34C35C36C37C38
+        C39C40C41C42C43C44C45C46C59C60E01E02E03E04E05E07E08
+        E09E10E11E12E13E14E15E18E19E21E24E25E26E27E30E31E33
+        E34E36G01G02G03G04G05G06G07G08G09G10G11G12G13G14G15
+        G16G17G18G19G20G21G22G23G24G25G26G27G28G29G30G31G32
+        J02J03J07R01R02R03R04R05R06R07R08R09R10R11R12R13R14
+        R15R17R18R19R20R21R23R24  0  0  0  0  0  0  0  0  0
++        17 17 17 17 17  9  9  9  9  9  9  8  9  9  9  7  7
++         7  7  7  7  7  7  7  7  7  7  7  7  7  7  7  8  8
++         8  8  7  7  7  7  7  7 18 17  4  5  4  4  4  5  4
++         4  5  4  4  4  4  4  4  4  4  4  4  4  4  5  4  4
++         4  4  3  4  4  4  4  4  4  3  4  4  4  4  3  3  3
++         4  4  4  4  4  3  4  3  3  4  4  4  4  4  4  4  3
++         8  8 17  7  6  6  6  6 15  6  6  6 15  6  6  7  6
++         6  6  6  7  7  6  0  6  0  0  0  0  0  0  0  0  0
%c M  cc GPS ccc cccc cccc cccc cccc ccccc ccccc ccccc ccccc
%c cc cc ccc ccc cccc cccc cccc cccc ccccc ccccc ccccc ccccc
%f  0.0000000  0.000000000  0.00000000000  0.000000000000000
%f  0.0000000  0.000000000  0.00000000000  0.000000000000000
%i    0    0    0    0      0      0      0      0         0
%i    0    0    0    0      0      0      0      0         0
/* INFORMATION & ANALYSIS CENTER (IAC)            RAPID DATA
/* S/V CLOCKS ARE ALIGNED TO GNSS TIME                      
/* G:C1WC2W R:C1PC2P E:C1XC5X C:C2IC6I J:C1CC2S             
/* PCV:IGS14_2215 OL/AL:FES2004  NONE     YN ORB:CoN CLK:CoN
*  2022 07 05 16 30  0.00000000
PC01 -34364.921495  24449.481105   -579.385015    385.395222
PC02   4436.389524  41963.054422    232.177666   -156.787483
PC03 -14773.938587  39520.003943   -620.493886   -500.346267
PC04 -39639.349204  14404.967727   -649.418976    242.827948
PC05  21972.874065  36056.918734    372.793979   -137.158022
PC06  -9632.491719  23536.468312  33617.459991    331.088083
PC07 -13673.515527  39178.827215  -7889.901923   -389.399088
PC08   1919.145809  34333.857590 -24312.557790    391.964061
PC09  -1394.470724  24710.790688  34522.826846   -937.469825
PC10  -9018.452000  39370.414618 -12678.309234    121.005489
PC11  26715.478872   4963.119884  -6218.548916    456.265910
PC12  13724.997295  13561.279538 -20125.444458   -584.012522
PC13   5416.185805  36409.901921 -20185.226403     15.360504
PC14  16648.100437   1928.913121  22322.030257    528.760414
PC16 -12105.031014  22623.064442  33604.901167    142.385842
PC19 -19338.257631   8558.311390 -18196.348259   -145.891322
PC20 -12308.434888 -10076.901053 -22912.873750   -964.207231
PC21  -2685.219185  23942.063254  14123.009950   -618.809404
PC22 -15550.740673  23027.942569  -2765.173328   -962.937690
PC23   8433.494314 -16046.768137 -21203.858053   -941.258011
PC24  17607.496109  20374.587293  -7281.580771   -968.221546
PC25  18450.498649   1616.654663 -20871.308754   -711.955226
PC26   7882.073573  25284.826797   8730.847346    713.797870
PC27  -3854.291930 -15767.258638  22674.077725    749.588692
PC28  16327.372828 -12701.503641  18725.618867     86.516057
PC29 -27572.400333   2859.887563  -3233.043208    577.644052
PC30 -22047.162237  -9424.059454  14251.148025    500.742954
PC32   2545.612673 -23962.746496 -14044.709607   -973.620155
PC33  19292.838585  -8509.528313  18272.249818    -94.681131
PC34  22794.596347   8927.164259 -13430.390212   -365.536770
PC35 -16948.674061  12903.482689 -18025.168796    352.102476
PC36 -18586.028250  -2632.500354  20679.106785   -972.719576
PC37  -6406.762057 -25347.601185  -9762.369995   -913.840560
PC38  -4996.040220  30522.052748 -28578.815211      8.010293
PC39 -18209.248439  21643.676572  31225.382306     34.970526
PC40 -21029.855062  36230.530178  -5650.105739     -0.095833
PC41  15741.246168 -22805.249802   3321.490974    -56.223982
PC42  11654.850076  11212.338309  22787.185236   -955.298959
PC43  27710.047440  -2285.033404   2492.051405      1.219651
PC44   4222.253164  15795.183535 -22633.669346    714.408039
PC45  -8112.420316  16248.017607  21191.758543    801.211890
PC46 -18139.669435 -19341.578193   8759.172956   -415.795545
PC59 -32311.040160  27106.768856    338.233152     -0.001294
PC60   7243.010537  41527.796414  -1489.607850     -0.046979
PE01  -2119.000522  29384.839559   2868.531549   -509.378278
PE02   1994.541856 -29416.576089  -2686.492985    310.037754
PE03   7428.100741 -20542.430558 -19965.926039   -575.905828
PE04  12798.455325  12015.019068  23842.685948  -1064.903875
PE05  23729.968962 -17168.398595  -4254.271079   -165.772770
PE07 -25975.051621   3885.725903 -13656.135053   -684.775557
PE08 -12966.673729 -11699.023794 -23896.065998   -558.449907
PE09  25912.372585  -4024.430288  13720.090686   -577.206271
PE10  25943.603009  14231.416169    617.295465   -524.289599
PE11  26633.293199   7213.588700  10714.644956   3115.543774
PE12  21107.695416  18752.570642  -8923.981570    -46.426970
PE13 -26734.459703  -7698.460617 -10107.179128    429.656482
PE14 -11016.040575  22503.251515 -20751.059849  -1787.846524
PE15 -21057.977730 -18712.525569   9079.766353    735.133475
PE18   4851.617809 -16123.055436  16333.042704  -1249.290582
PE19 -10065.400302  20722.593935  18597.205906  -5178.191700
PE21 -12582.258989  19483.696235  18395.948034   -744.167999
PE24  16576.639322   3593.390171 -24265.163733   -708.380148
PE25  12695.724969 -19235.983689 -18563.927390   -580.013483
PE26 -15983.219304   8518.132593 -23417.977788  -1342.159534
PE27 -16614.705381  -2233.788460  24402.292616   -337.886469
PE30 -10292.586269 -23174.466031  15273.712625   -648.024334
PE31  10824.306301  22434.276211 -15980.378079   -499.416498
PE33   2995.279855  18633.958400 -22808.966486   -454.987745
PE34  -3243.105629 -18685.971310  22715.310001   -525.580686
PE36  16681.896054  -7731.021836  23193.030533   -397.890784
PG01  22396.557628  14200.531458   3189.426557    327.372839
PG02  -9379.420089 -19116.646074  16425.381823   -651.882575
PG03  12739.984980  11071.956175  20418.599833   -298.946624
PG04  20282.645616   4361.923540  16643.176239   -149.436026
PG05  -6728.998138 -22855.821912 -11757.398302    -88.034002
PG06   5434.852049 -14008.105304  21954.312037    372.227992
PG07  21184.266692   1567.899604 -15830.945439    320.260352
PG08  14019.918744   9298.160204 -20672.087353    -74.969933
PG09  24731.668412  -5114.945652   8217.800736   -322.010851
PG10 -11431.048205  19347.805944 -13772.213923   -480.863582
PG11  -7282.589339 -20105.776397  15763.204390    -11.562780
PG12 -10607.007832 -14889.602787  19041.405527   -241.752543
PG13  -3434.463413 -14731.245199 -21983.428198    342.624693
PG14  13096.097702 -17848.860955 -14598.571792   -112.015268
PG15 -15190.398878  -8630.532631 -20496.526532    -47.821172
PG16    322.041209  25267.691506  -7645.349259   -513.529276
PG17  21264.901342 -13861.498763   8335.147707    633.297931
PG18 -20721.982116  -1496.125089 -16627.795033    122.270524
PG19  15091.347795 -15477.046629  15020.302072    179.739568
PG20  -1056.021341 -26661.675100    437.060066    505.709102
PG21  20141.308952  16810.226794  -5445.727131    161.206964
PG22 -11862.662530  16782.080560  17147.168412    287.266076
PG23 -14611.323950   9164.671017 -20178.566956    -31.529814
PG24 -22213.900021 -14924.669852  -1491.494214    204.569972
PG25 -15229.419986    160.236595  21460.626841    345.606958
PG26  -4037.259879  25801.464199   3729.167076    216.478129
PG27    113.839717  15931.544695 -21399.921061    219.772885
PG28   9199.734178 -24148.614877  -6128.953769    331.017610
PG29 -25183.598867   3401.454906   7805.784566   -530.702181
PG30  14493.798851  -8149.723698 -20666.196518   -533.268053
PG31  -3697.694681  15763.908790  20839.177861   -184.556538
PG32 -18708.490848  16029.876464   9818.826330   -168.492527
PJ02 -27970.746220  25379.400369  23803.954975     -1.342237
PJ03 -28322.494888  18646.676242 -20353.366826     -3.304396
PJ07 -25383.536771  33678.331245     33.464531     -0.012895
PR01 -10141.723318  -4939.544861 -22876.245784     10.996989
PR02 -18441.993444  11863.315911 -12934.661418    523.287752
PR03 -14864.828441  20283.922529   4150.556745     59.672002
PR04  -3324.214650  17100.778354  18658.743831    149.561069
PR05  10161.341879   4642.758223  22945.538324     95.739922
PR06  18225.937083 -13189.814963  12031.730549    -57.516662
PR07  14611.192830 -20382.032243  -4752.982185     37.404224
PR08   3155.375277 -17124.481249 -18592.572401    -66.049030
PR09  11391.614843  -1658.641160 -22745.986422     64.169048
PR10   3313.288839 -17014.410469 -18745.031164    -83.917153
PR11  -7204.664354 -24221.326236  -3399.074861     34.183087
PR12 -13215.994616 -16259.106574  14588.174326     19.166699
PR13 -11568.782933    131.110315  22723.352239    -24.305773
PR14  -2606.325511  18138.924836  17771.065736     24.985833
PR15   7337.412966  24305.949275   2525.084987     94.844755
PR17 -10949.756994   7894.515544 -21652.456377    540.869007
PR18   7214.418689  11381.979853 -21661.739286    122.567203
PR19  20556.528353   9925.152817 -11384.377610   -195.206920
PR20  23869.571315   1483.834818   8925.326090    -74.011617
PR21   9364.219856  -8321.769266  22206.431853   -314.994122
PR23 -23549.468721  -7679.380745   6079.565593 999999.999999
PR24 -23687.668739   -328.172858  -9472.654900    102.064853
EOF
